start=new Date('2023-04-26T00:00:00.000Z').valueOf();
sats=[{"TLE_LINE1":"1 46788U 20074BB  23115.57930729  .00012150  00000-0  83409-3 0  9996","ELEMENT_SET_NO":"999","OBJECT_NAME":"STARLINK-1929","MEAN_MOTION":"15.06359136","FILE":"3894092","RA_OF_ASC_NODE":"321.2598","PERIOD":"95.595","SEMIMAJOR_AXIS":"6925.474","MEAN_ANOMALY":"251.3619","APOAPSIS":"547.979","EPOCH":"2023-04-25T13:54:12.149856","MEAN_MOTION_DOT":"0.00012150","TIME_SYSTEM":"UTC","REF_FRAME":"TEME","DECAY_DATE":null,"COUNTRY_CODE":"US","EPHEMERIS_TYPE":"0","MEAN_ELEMENT_THEORY":"SGP4","CLASSIFICATION_TYPE":"U","TLE_LINE2":"2 46788  53.0553 321.2598 0000924 108.7470 251.3619 15.06359136138972","CENTER_NAME":"EARTH","SITE":"AFETR","ECCENTRICITY":"0.00009240","BSTAR":"0.00083409000000","REV_AT_EPOCH":"13897","NORAD_CAT_ID":"46788","INCLINATION":"53.0553","OBJECT_TYPE":"PAYLOAD","RCS_SIZE":"LARGE","OBJECT_ID":"2020-074BB","GP_ID":"230739687","MEAN_MOTION_DDOT":"0.0000000000000","PERIAPSIS":"546.699","ARG_OF_PERICENTER":"108.7470","LAUNCH_DATE":"2020-10-24"},{"MEAN_MOTION":"15.06401295","OBJECT_NAME":"STARLINK-1930","ELEMENT_SET_NO":"999","TLE_LINE1":"1 46789U 20074BC  23115.20430807  .00025513  00000-0  17254-2 0  9990","FILE":"3894092","APOAPSIS":"547.672","MEAN_ANOMALY":"317.2818","SEMIMAJOR_AXIS":"6925.345","PERIOD":"95.592","RA_OF_ASC_NODE":"353.1043","TIME_SYSTEM":"UTC","MEAN_MOTION_DOT":"0.00025513","EPOCH":"2023-04-25T04:54:12.217248","SITE":"AFETR","TLE_LINE2":"2 46789  53.0544 353.1043 0000667  42.8222 317.2818 15.06401295138493","CENTER_NAME":"EARTH","EPHEMERIS_TYPE":"0","MEAN_ELEMENT_THEORY":"SGP4","CLASSIFICATION_TYPE":"U","COUNTRY_CODE":"US","REF_FRAME":"TEME","DECAY_DATE":null,"NORAD_CAT_ID":"46789","REV_AT_EPOCH":"13849","ECCENTRICITY":"0.00006670","BSTAR":"0.00172540000000","MEAN_MOTION_DDOT":"0.0000000000000","GP_ID":"230738437","RCS_SIZE":"LARGE","OBJECT_ID":"2020-074BC","OBJECT_TYPE":"PAYLOAD","INCLINATION":"53.0544","LAUNCH_DATE":"2020-10-24","ARG_OF_PERICENTER":"42.8222","PERIAPSIS":"546.748"},{"MEAN_MOTION_DOT":"0.00024740","TIME_SYSTEM":"UTC","EPOCH":"2023-04-25T04:01:03.283104","APOAPSIS":"548.276","PERIOD":"95.596","SEMIMAJOR_AXIS":"6925.537","MEAN_ANOMALY":"285.9444","RA_OF_ASC_NODE":"353.1074","FILE":"3894092","MEAN_MOTION":"15.06338474","TLE_LINE1":"1 46790U 20074BD  23115.16739911  .00024740  00000-0  16767-2 0  9994","ELEMENT_SET_NO":"999","OBJECT_NAME":"STARLINK-1931","ARG_OF_PERICENTER":"74.1684","LAUNCH_DATE":"2020-10-24","PERIAPSIS":"546.528","MEAN_MOTION_DDOT":"0.0000000000000","GP_ID":"230739186","OBJECT_TYPE":"PAYLOAD","RCS_SIZE":"LARGE","OBJECT_ID":"2020-074BD","INCLINATION":"53.0552","NORAD_CAT_ID":"46790","REV_AT_EPOCH":"13848","BSTAR":"0.00167670000000","ECCENTRICITY":"0.00012620","SITE":"AFETR","MEAN_ELEMENT_THEORY":"SGP4","EPHEMERIS_TYPE":"0","CLASSIFICATION_TYPE":"U","CENTER_NAME":"EARTH","TLE_LINE2":"2 46790  53.0552 353.1074 0001262  74.1684 285.9444 15.06338474138483","REF_FRAME":"TEME","DECAY_DATE":null,"COUNTRY_CODE":"US"},{"RCS_SIZE":"LARGE","OBJECT_ID":"2020-074BE","OBJECT_TYPE":"PAYLOAD","INCLINATION":"53.0544","MEAN_MOTION_DDOT":"0.0000000000000","GP_ID":"230747089","LAUNCH_DATE":"2020-10-24","ARG_OF_PERICENTER":"90.1101","PERIAPSIS":"546.529","COUNTRY_CODE":"US","REF_FRAME":"TEME","DECAY_DATE":null,"SITE":"AFETR","TLE_LINE2":"2 46791  53.0544 350.9554 0001220  90.1101 270.0028 15.06347720138239","CENTER_NAME":"EARTH","EPHEMERIS_TYPE":"0","CLASSIFICATION_TYPE":"U","MEAN_ELEMENT_THEORY":"SGP4","ECCENTRICITY":"0.00012200","BSTAR":"0.00172490000000","NORAD_CAT_ID":"46791","REV_AT_EPOCH":"13823","RA_OF_ASC_NODE":"350.9554","APOAPSIS":"548.219","MEAN_ANOMALY":"270.0028","SEMIMAJOR_AXIS":"6925.509","PERIOD":"95.595","EPOCH":"2023-04-25T15:31:07.837536","TIME_SYSTEM":"UTC","MEAN_MOTION_DOT":"0.00025468","ELEMENT_SET_NO":"999","OBJECT_NAME":"STARLINK-1933","TLE_LINE1":"1 46791U 20074BE  23115.64661849  .00025468  00000-0  17249-2 0  9996","MEAN_MOTION":"15.06347720","FILE":"3894134"},{"EPOCH":"2023-04-25T19:20:39.725376","MEAN_MOTION_DOT":"0.00019488","TIME_SYSTEM":"UTC","RA_OF_ASC_NODE":"340.2400","PERIOD":"95.594","SEMIMAJOR_AXIS":"6925.447","MEAN_ANOMALY":"257.2282","APOAPSIS":"548.310","FILE":"3894134","TLE_LINE1":"1 46792U 20074BF  23115.80601534  .00019488  00000-0  13247-2 0  9999","OBJECT_NAME":"STARLINK-1934","ELEMENT_SET_NO":"999","MEAN_MOTION":"15.06367802","PERIAPSIS":"546.315","ARG_OF_PERICENTER":"102.8868","LAUNCH_DATE":"2020-10-24","INCLINATION":"53.0545","OBJECT_TYPE":"PAYLOAD","OBJECT_ID":"2020-074BF","RCS_SIZE":"LARGE","GP_ID":"230747087","MEAN_MOTION_DDOT":"0.0000000000000","ECCENTRICITY":"0.00014400","BSTAR":"0.00132470000000","REV_AT_EPOCH":"13839","NORAD_CAT_ID":"46792","DECAY_DATE":null,"REF_FRAME":"TEME","COUNTRY_CODE":"US","CLASSIFICATION_TYPE":"U","MEAN_ELEMENT_THEORY":"SGP4","EPHEMERIS_TYPE":"0","CENTER_NAME":"EARTH","TLE_LINE2":"2 46792  53.0545 340.2400 0001440 102.8868 257.2282 15.06367802138397","SITE":"AFETR"},{"RCS_SIZE":"LARGE","OBJECT_ID":"2020-074BG","OBJECT_TYPE":"PAYLOAD","INCLINATION":"53.0550","MEAN_MOTION_DDOT":"0.0000000000000","GP_ID":"230738938","LAUNCH_DATE":"2020-10-24","ARG_OF_PERICENTER":"101.6164","PERIAPSIS":"546.397","COUNTRY_CODE":"US","DECAY_DATE":null,"REF_FRAME":"TEME","SITE":"AFETR","TLE_LINE2":"2 46793  53.0550 353.9835 0001405 101.6164 258.4982 15.06349028138451","CENTER_NAME":"EARTH","MEAN_ELEMENT_THEORY":"SGP4","EPHEMERIS_TYPE":"0","CLASSIFICATION_TYPE":"U","BSTAR":"0.00008182100000","ECCENTRICITY":"0.00014050","NORAD_CAT_ID":"46793","REV_AT_EPOCH":"13845","RA_OF_ASC_NODE":"353.9835","APOAPSIS":"548.343","MEAN_ANOMALY":"258.4982","SEMIMAJOR_AXIS":"6925.505","PERIOD":"95.595","EPOCH":"2023-04-24T23:19:44.252544","TIME_SYSTEM":"UTC","MEAN_MOTION_DOT":"0.00000936","OBJECT_NAME":"STARLINK-1941","ELEMENT_SET_NO":"999","TLE_LINE1":"1 46793U 20074BG  23114.97203996  .00000936  00000-0  81821-4 0  9990","MEAN_MOTION":"15.06349028","FILE":"3894092"},{"MEAN_ELEMENT_THEORY":"SGP4","EPHEMERIS_TYPE":"0","CLASSIFICATION_TYPE":"U","TLE_LINE2":"2 46794  53.0550 352.7595 0000912  90.9265 269.1829 15.06297181138503","CENTER_NAME":"EARTH","SITE":"AFETR","REF_FRAME":"TEME","DECAY_DATE":null,"COUNTRY_CODE":"US","REV_AT_EPOCH":"13850","NORAD_CAT_ID":"46794","ECCENTRICITY":"0.00009120","BSTAR":"0.00175190000000","GP_ID":"230738688","MEAN_MOTION_DDOT":"0.0000000000000","INCLINATION":"53.0550","OBJECT_TYPE":"PAYLOAD","OBJECT_ID":"2020-074BH","RCS_SIZE":"LARGE","PERIAPSIS":"546.897","ARG_OF_PERICENTER":"90.9265","LAUNCH_DATE":"2020-10-24","MEAN_MOTION":"15.06297181","TLE_LINE1":"1 46794U 20074BH  23115.24478394  .00025837  00000-0  17519-2 0  9996","ELEMENT_SET_NO":"999","OBJECT_NAME":"STARLINK-1942","FILE":"3894092","PERIOD":"95.599","SEMIMAJOR_AXIS":"6925.664","MEAN_ANOMALY":"269.1829","APOAPSIS":"548.160","RA_OF_ASC_NODE":"352.7595","MEAN_MOTION_DOT":"0.00025837","TIME_SYSTEM":"UTC","EPOCH":"2023-04-25T05:52:29.332416"},{"FILE":"3894092","MEAN_MOTION":"15.06335039","OBJECT_NAME":"STARLINK-1944","ELEMENT_SET_NO":"999","TLE_LINE1":"1 46796U 20074BK  23115.15359252  .00026488  00000-0  17936-2 0  9995","TIME_SYSTEM":"UTC","MEAN_MOTION_DOT":"0.00026488","EPOCH":"2023-04-25T03:41:10.393728","APOAPSIS":"548.472","SEMIMAJOR_AXIS":"6925.548","MEAN_ANOMALY":"280.2665","PERIOD":"95.596","RA_OF_ASC_NODE":"343.1683","NORAD_CAT_ID":"46796","REV_AT_EPOCH":"13862","ECCENTRICITY":"0.00015300","BSTAR":"0.00179360000000","SITE":"AFETR","TLE_LINE2":"2 46796  53.0541 343.1683 0001530  79.8496 280.2665 15.06335039138626","CENTER_NAME":"EARTH","MEAN_ELEMENT_THEORY":"SGP4","EPHEMERIS_TYPE":"0","CLASSIFICATION_TYPE":"U","COUNTRY_CODE":"US","DECAY_DATE":null,"REF_FRAME":"TEME","LAUNCH_DATE":"2020-10-24","ARG_OF_PERICENTER":"79.8496","PERIAPSIS":"546.353","MEAN_MOTION_DDOT":"0.0000000000000","GP_ID":"230739938","OBJECT_ID":"2020-074BK","RCS_SIZE":"LARGE","OBJECT_TYPE":"PAYLOAD","INCLINATION":"53.0541"},{"PERIAPSIS":"546.533","LAUNCH_DATE":"2020-10-24","ARG_OF_PERICENTER":"77.1434","GP_ID":"230739688","MEAN_MOTION_DDOT":"0.0000000000000","INCLINATION":"53.0558","RCS_SIZE":"LARGE","OBJECT_ID":"2020-074BM","OBJECT_TYPE":"PAYLOAD","REV_AT_EPOCH":"13829","NORAD_CAT_ID":"46798","BSTAR":"0.00219840000000","ECCENTRICITY":"0.00013630","TLE_LINE2":"2 46798  53.0558   7.7282 0001363  77.1434 282.9707 15.06314181138295","CENTER_NAME":"EARTH","MEAN_ELEMENT_THEORY":"SGP4","EPHEMERIS_TYPE":"0","CLASSIFICATION_TYPE":"U","SITE":"AFETR","COUNTRY_CODE":"US","DECAY_DATE":null,"REF_FRAME":"TEME","TIME_SYSTEM":"UTC","MEAN_MOTION_DOT":"0.00032539","EPOCH":"2023-04-25T06:02:27.078720","MEAN_ANOMALY":"282.9707","SEMIMAJOR_AXIS":"6925.612","PERIOD":"95.598","APOAPSIS":"548.421","RA_OF_ASC_NODE":"7.7282","FILE":"3894092","MEAN_MOTION":"15.06314181","OBJECT_NAME":"STARLINK-1948","ELEMENT_SET_NO":"999","TLE_LINE1":"1 46798U 20074BM  23115.25170230  .00032539  00000-0  21984-2 0  9997"},{"COUNTRY_CODE":"US","REF_FRAME":"TEME","DECAY_DATE":null,"SITE":"AFETR","TLE_LINE2":"2 47122  53.0538 331.1485 0000642  99.6845 260.4216 15.06379605133718","CENTER_NAME":"EARTH","CLASSIFICATION_TYPE":"U","MEAN_ELEMENT_THEORY":"SGP4","EPHEMERIS_TYPE":"0","ECCENTRICITY":"0.00006420","BSTAR":"0.00128600000000","NORAD_CAT_ID":"47122","REV_AT_EPOCH":"13371","RCS_SIZE":"LARGE","OBJECT_ID":"2020-088A","OBJECT_TYPE":"PAYLOAD","INCLINATION":"53.0538","MEAN_MOTION_DDOT":"0.0000000000000","GP_ID":"230739468","LAUNCH_DATE":"2020-11-25","ARG_OF_PERICENTER":"99.6845","PERIAPSIS":"546.831","OBJECT_NAME":"STARLINK-1777","ELEMENT_SET_NO":"999","TLE_LINE1":"1 47122U 20088A   23115.60419275  .00018915  00000-0  12860-2 0  9993","MEAN_MOTION":"15.06379605","FILE":"3894092","RA_OF_ASC_NODE":"331.1485","APOAPSIS":"547.721","MEAN_ANOMALY":"260.4216","SEMIMAJOR_AXIS":"6925.411","PERIOD":"95.593","EPOCH":"2023-04-25T14:30:02.253600","TIME_SYSTEM":"UTC","MEAN_MOTION_DOT":"0.00018915"}];
